UWE-3                   
1 39446U 13066AG  26093.80688810  .00007966  00000+0  69038-3 0  9997
2 39446  97.8634  49.4472 0048895 206.0500 153.8259 14.96445183666457
UNISAT-6                
1 40012U 14033C   26094.16414123  .00006162  00000+0  66817-3 0  9996
2 40012  97.7776 248.2403 0044226 313.5116  46.2428 14.87821522635159
DUCHIFAT-1              
1 40021U 14033M   26094.17646504  .00103811  00000+0  16253-2 0  9994
2 40021  98.0575 143.6688 0003162 348.3303  11.7874 15.53368895644224
QB50P1                  
1 40025U 14033R   26093.58092979  .00015793  00000+0  79934-3 0  9990
2 40025  98.0999  99.5565 0010578 116.9605 243.2708 15.17064692641711
LILACSAT-2              
1 40908U 15049K   26094.29855134  .00029371  00000+0  54162-3 0  9990
2 40908  97.4752 128.4238 0008433 148.8990 211.2761 15.49051323584305
FOX-1A (AO-85)          
1 40967U 15058D   26094.22390213  .00004322  00000+0  39200-3 0  9995
2 40967  64.7745 148.7576 0128318  85.6580 275.9182 14.90539097102547
CAS-2T & KS-1Q          
1 41847U 16066G   26094.19697582  .00001459  00000+0  21385-3 0  9991
2 41847  98.3851 170.7641 0342160 354.2629   5.4685 14.44538820494119
RADFXSAT (FOX-1B)       
1 43017U 17073E   26094.15504960  .00015150  00000+0  67781-3 0  9997
2 43017  97.4813 322.9183 0152857 223.5495 135.3586 15.11425119454201
DIWATA-2B               
1 43678U 18084H   26094.27088655  .00003440  00000+0  28063-3 0  9993
2 43678  98.1033 287.3592 0013922  51.9618 308.2859 15.00100365405136
ES'HAIL 2               
1 43700U 18090A   26094.19419966  .00000143  00000+0  00000+0 0  9994
2 43700   0.0194 220.7704 0001207 158.3279 269.1593  1.00269150 26936
FOX-1CLIFF (AO-95)      
1 43770U 18099N   26094.10637231  .00023564  00000+0  94062-3 0  9995
2 43770  97.4457 154.6911 0007699 242.7013 117.3441 15.25133637401929
ITASAT                  
1 43786U 18099AE  26094.08910567  .00014687  00000+0  72123-3 0  9995
2 43786  97.4110 147.1018 0011391 247.5141 112.4887 15.18114268401668
JY1SAT (JO-97)          
1 43803U 18099AX  26094.11459963  .00034098  00000+0  11247-2 0  9994
2 43803  97.4202 156.8006 0006660 162.1825 197.9651 15.31338197402288
UWE-4                   
1 43880U 18111E   26094.26197585  .00053849  00000+0  12646-2 0  9998
2 43880  97.5859  19.5117 0006722 214.8535 145.2272 15.41827832399372
TIANYAN 01              
1 44881U 19093C   26094.26702002  .00001162  00000+0  13761-3 0  9997
2 44881  97.7573 168.2947 0012977 336.1750  23.8863 14.86398407340437
RS-44 & BREEZE-KM R/B   
1 44909U 19096E   26094.28072370  .00000021  00000+0  45188-4 0  9993
2 44909  82.5255  28.8105 0216813 317.4452  41.0020 12.79747790292896
