[{"OBJECT_NAME":"UWE-3","OBJECT_ID":"2013-066AG","EPOCH":"2026-04-03T19:21:55.131840","MEAN_MOTION":14.96445183,"ECCENTRICITY":0.00488951,"INCLINATION":97.8634,"RA_OF_ASC_NODE":49.4472,"ARG_OF_PERICENTER":206.05,"MEAN_ANOMALY":153.8259,"EPHEMERIS_TYPE":0,"CLASSIFICATION_TYPE":"U","NORAD_CAT_ID":39446,"ELEMENT_SET_NO":999,"REV_AT_EPOCH":66645,"BSTAR":0.00069038382,"MEAN_MOTION_DOT":7.966e-5,"MEAN_MOTION_DDOT":0},{"OBJECT_NAME":"UNISAT-6","OBJECT_ID":"2014-033C","EPOCH":"2026-04-04T03:56:21.802272","MEAN_MOTION":14.87821522,"ECCENTRICITY":0.00442266,"INCLINATION":97.7776,"RA_OF_ASC_NODE":248.2403,"ARG_OF_PERICENTER":313.5116,"MEAN_ANOMALY":46.2428,"EPHEMERIS_TYPE":0,"CLASSIFICATION_TYPE":"U","NORAD_CAT_ID":40012,"ELEMENT_SET_NO":999,"REV_AT_EPOCH":63515,"BSTAR":0.00066817113,"MEAN_MOTION_DOT":6.162e-5,"MEAN_MOTION_DDOT":0},{"OBJECT_NAME":"DUCHIFAT-1","OBJECT_ID":"2014-033M","EPOCH":"2026-04-04T04:14:06.579456","MEAN_MOTION":15.53368895,"ECCENTRICITY":0.00031621,"INCLINATION":98.0575,"RA_OF_ASC_NODE":143.6688,"ARG_OF_PERICENTER":348.3303,"MEAN_ANOMALY":11.7874,"EPHEMERIS_TYPE":0,"CLASSIFICATION_TYPE":"U","NORAD_CAT_ID":40021,"ELEMENT_SET_NO":999,"REV_AT_EPOCH":64422,"BSTAR":0.0016252612,"MEAN_MOTION_DOT":0.00103811,"MEAN_MOTION_DDOT":0},{"OBJECT_NAME":"QB50P1","OBJECT_ID":"2014-033R","EPOCH":"2026-04-03T13:56:32.333856","MEAN_MOTION":15.17064692,"ECCENTRICITY":0.0010578,"INCLINATION":98.0999,"RA_OF_ASC_NODE":99.5565,"ARG_OF_PERICENTER":116.9605,"MEAN_ANOMALY":243.2708,"EPHEMERIS_TYPE":0,"CLASSIFICATION_TYPE":"U","NORAD_CAT_ID":40025,"ELEMENT_SET_NO":999,"REV_AT_EPOCH":64171,"BSTAR":0.00079934,"MEAN_MOTION_DOT":0.00015793,"MEAN_MOTION_DDOT":0},{"OBJECT_NAME":"LILACSAT-2","OBJECT_ID":"2015-049K","EPOCH":"2026-04-04T07:09:54.835776","MEAN_MOTION":15.49051323,"ECCENTRICITY":0.00084335,"INCLINATION":97.4752,"RA_OF_ASC_NODE":128.4238,"ARG_OF_PERICENTER":148.899,"MEAN_ANOMALY":211.2761,"EPHEMERIS_TYPE":0,"CLASSIFICATION_TYPE":"U","NORAD_CAT_ID":40908,"ELEMENT_SET_NO":999,"REV_AT_EPOCH":58430,"BSTAR":0.00054162448,"MEAN_MOTION_DOT":0.00029371,"MEAN_MOTION_DDOT":0},{"OBJECT_NAME":"FOX-1A (AO-85)","OBJECT_ID":"2015-058D","EPOCH":"2026-04-04T05:22:25.144032","MEAN_MOTION":14.90539097,"ECCENTRICITY":0.01283181,"INCLINATION":64.7745,"RA_OF_ASC_NODE":148.7576,"ARG_OF_PERICENTER":85.658,"MEAN_ANOMALY":275.9182,"EPHEMERIS_TYPE":0,"CLASSIFICATION_TYPE":"U","NORAD_CAT_ID":40967,"ELEMENT_SET_NO":999,"REV_AT_EPOCH":10254,"BSTAR":0.00039200049,"MEAN_MOTION_DOT":4.322e-5,"MEAN_MOTION_DDOT":0},{"OBJECT_NAME":"CAS-2T & KS-1Q","OBJECT_ID":"2016-066G","EPOCH":"2026-04-04T04:43:38.710848","MEAN_MOTION":14.4453882,"ECCENTRICITY":0.03421603,"INCLINATION":98.3851,"RA_OF_ASC_NODE":170.7641,"ARG_OF_PERICENTER":354.2629,"MEAN_ANOMALY":5.4685,"EPHEMERIS_TYPE":0,"CLASSIFICATION_TYPE":"U","NORAD_CAT_ID":41847,"ELEMENT_SET_NO":999,"REV_AT_EPOCH":49411,"BSTAR":0.0002138508,"MEAN_MOTION_DOT":1.459e-5,"MEAN_MOTION_DDOT":0},{"OBJECT_NAME":"RADFXSAT (FOX-1B)","OBJECT_ID":"2017-073E","EPOCH":"2026-04-04T03:43:16.285440","MEAN_MOTION":15.11425119,"ECCENTRICITY":0.01528573,"INCLINATION":97.4813,"RA_OF_ASC_NODE":322.9183,"ARG_OF_PERICENTER":223.5495,"MEAN_ANOMALY":135.3586,"EPHEMERIS_TYPE":0,"CLASSIFICATION_TYPE":"U","NORAD_CAT_ID":43017,"ELEMENT_SET_NO":999,"REV_AT_EPOCH":45420,"BSTAR":0.00067780816,"MEAN_MOTION_DOT":0.0001515,"MEAN_MOTION_DDOT":0},{"OBJECT_NAME":"DIWATA-2B","OBJECT_ID":"2018-084H","EPOCH":"2026-04-04T06:30:04.597920","MEAN_MOTION":15.00100365,"ECCENTRICITY":0.00139222,"INCLINATION":98.1033,"RA_OF_ASC_NODE":287.3592,"ARG_OF_PERICENTER":51.9618,"MEAN_ANOMALY":308.2859,"EPHEMERIS_TYPE":0,"CLASSIFICATION_TYPE":"U","NORAD_CAT_ID":43678,"ELEMENT_SET_NO":999,"REV_AT_EPOCH":40513,"BSTAR":0.00028063127,"MEAN_MOTION_DOT":3.44e-5,"MEAN_MOTION_DDOT":0},{"OBJECT_NAME":"ES'HAIL 2","OBJECT_ID":"2018-090A","EPOCH":"2026-04-04T04:39:38.850624","MEAN_MOTION":1.0026915,"ECCENTRICITY":0.00012075,"INCLINATION":0.0194,"RA_OF_ASC_NODE":220.7704,"ARG_OF_PERICENTER":158.3279,"MEAN_ANOMALY":269.1593,"EPHEMERIS_TYPE":0,"CLASSIFICATION_TYPE":"U","NORAD_CAT_ID":43700,"ELEMENT_SET_NO":999,"REV_AT_EPOCH":2693,"BSTAR":0,"MEAN_MOTION_DOT":1.43e-6,"MEAN_MOTION_DDOT":0},{"OBJECT_NAME":"FOX-1CLIFF (AO-95)","OBJECT_ID":"2018-099N","EPOCH":"2026-04-04T02:33:10.567584","MEAN_MOTION":15.25133637,"ECCENTRICITY":0.00076997,"INCLINATION":97.4457,"RA_OF_ASC_NODE":154.6911,"ARG_OF_PERICENTER":242.7013,"MEAN_ANOMALY":117.3441,"EPHEMERIS_TYPE":0,"CLASSIFICATION_TYPE":"U","NORAD_CAT_ID":43770,"ELEMENT_SET_NO":999,"REV_AT_EPOCH":40192,"BSTAR":0.00094062401,"MEAN_MOTION_DOT":0.00023564,"MEAN_MOTION_DDOT":0},{"OBJECT_NAME":"ITASAT","OBJECT_ID":"2018-099AE","EPOCH":"2026-04-04T02:08:18.729888","MEAN_MOTION":15.18114268,"ECCENTRICITY":0.00113919,"INCLINATION":97.411,"RA_OF_ASC_NODE":147.1018,"ARG_OF_PERICENTER":247.5141,"MEAN_ANOMALY":112.4887,"EPHEMERIS_TYPE":0,"CLASSIFICATION_TYPE":"U","NORAD_CAT_ID":43786,"ELEMENT_SET_NO":999,"REV_AT_EPOCH":40166,"BSTAR":0.00072123412,"MEAN_MOTION_DOT":0.00014687,"MEAN_MOTION_DDOT":0},{"OBJECT_NAME":"JY1SAT (JO-97)","OBJECT_ID":"2018-099AX","EPOCH":"2026-04-04T02:45:01.408032","MEAN_MOTION":15.31338197,"ECCENTRICITY":0.00066608,"INCLINATION":97.4202,"RA_OF_ASC_NODE":156.8006,"ARG_OF_PERICENTER":162.1825,"MEAN_ANOMALY":197.9651,"EPHEMERIS_TYPE":0,"CLASSIFICATION_TYPE":"U","NORAD_CAT_ID":43803,"ELEMENT_SET_NO":999,"REV_AT_EPOCH":40228,"BSTAR":0.0011246669,"MEAN_MOTION_DOT":0.00034098,"MEAN_MOTION_DDOT":0},{"OBJECT_NAME":"UWE-4","OBJECT_ID":"2018-111E","EPOCH":"2026-04-04T06:17:14.713440","MEAN_MOTION":15.41827832,"ECCENTRICITY":0.00067223,"INCLINATION":97.5859,"RA_OF_ASC_NODE":19.5117,"ARG_OF_PERICENTER":214.8535,"MEAN_ANOMALY":145.2272,"EPHEMERIS_TYPE":0,"CLASSIFICATION_TYPE":"U","NORAD_CAT_ID":43880,"ELEMENT_SET_NO":999,"REV_AT_EPOCH":39937,"BSTAR":0.0012645742,"MEAN_MOTION_DOT":0.00053849,"MEAN_MOTION_DDOT":0},{"OBJECT_NAME":"TIANYAN 01","OBJECT_ID":"2019-093C","EPOCH":"2026-04-04T06:24:30.529728","MEAN_MOTION":14.86398407,"ECCENTRICITY":0.00129771,"INCLINATION":97.7573,"RA_OF_ASC_NODE":168.2947,"ARG_OF_PERICENTER":336.175,"MEAN_ANOMALY":23.8863,"EPHEMERIS_TYPE":0,"CLASSIFICATION_TYPE":"U","NORAD_CAT_ID":44881,"ELEMENT_SET_NO":999,"REV_AT_EPOCH":34043,"BSTAR":0.00013760775,"MEAN_MOTION_DOT":1.162e-5,"MEAN_MOTION_DDOT":0},{"OBJECT_NAME":"RS-44 & BREEZE-KM R/B","OBJECT_ID":"2019-096E","EPOCH":"2026-04-04T06:44:14.527680","MEAN_MOTION":12.7974779,"ECCENTRICITY":0.02168138,"INCLINATION":82.5255,"RA_OF_ASC_NODE":28.8105,"ARG_OF_PERICENTER":317.4452,"MEAN_ANOMALY":41.002,"EPHEMERIS_TYPE":0,"CLASSIFICATION_TYPE":"U","NORAD_CAT_ID":44909,"ELEMENT_SET_NO":999,"REV_AT_EPOCH":29289,"BSTAR":4.51877e-5,"MEAN_MOTION_DOT":2.1e-7,"MEAN_MOTION_DDOT":0}]
